TROLL                   
1 62658U 25009BB  26068.22522958  .00013174  00000+0  48220-3 0  9994
2 62658  97.3932 150.7169 0001816  59.1850 300.9568 15.28164315118170
STARLINK-35673          
1 66492U 25263H   26068.19405785  .00040572  00000+0  14749-2 0  9990
2 66492  43.0002 353.4564 0001627 281.1193  78.9475 15.27600433 18829
